{"fetched_at":"2026-07-13T18:16:29.920Z","source":"https://celestrak.org/NORAD/elements/gp.php?GROUP=kuiper&FORMAT=JSON","constellation":"kuiper","records":[{"OBJECT_NAME":"KUIPER-00629","OBJECT_ID":"2026-151W","EPOCH":"2026-07-13T00:00:02.000160","CLASSIFICATION_TYPE":"U","MEAN_MOTION":15.36934697,"ECCENTRICITY":0.00074917,"INCLINATION":51.8743,"RA_OF_ASC_NODE":191.0326,"ARG_OF_PERICENTER":139.9192,"MEAN_ANOMALY":335.233,"EPHEMERIS_TYPE":0,"NORAD_CAT_ID":69783,"ELEMENT_SET_NO":999,"REV_AT_EPOCH":200,"BSTAR":0.00065429874,"MEAN_MOTION_DOT":0.00023704,"MEAN_MOTION_DDOT":0},{"OBJECT_NAME":"KUIPER-00631","OBJECT_ID":"2026-151X","EPOCH":"2026-07-13T00:00:02.000160","CLASSIFICATION_TYPE":"U","MEAN_MOTION":15.36708422,"ECCENTRICITY":0.00079839,"INCLINATION":51.8711,"RA_OF_ASC_NODE":191.0504,"ARG_OF_PERICENTER":147.4685,"MEAN_ANOMALY":318.829,"EPHEMERIS_TYPE":0,"NORAD_CAT_ID":69784,"ELEMENT_SET_NO":999,"REV_AT_EPOCH":130,"BSTAR":0.00066083074,"MEAN_MOTION_DOT":0.00023771,"MEAN_MOTION_DDOT":0},{"OBJECT_NAME":"KUIPER-00634","OBJECT_ID":"2026-151Y","EPOCH":"2026-07-13T07:10:08.880960","CLASSIFICATION_TYPE":"U","MEAN_MOTION":15.37713955,"ECCENTRICITY":0.00036439,"INCLINATION":51.878,"RA_OF_ASC_NODE":189.5254,"ARG_OF_PERICENTER":130.9891,"MEAN_ANOMALY":229.1412,"EPHEMERIS_TYPE":0,"NORAD_CAT_ID":69785,"ELEMENT_SET_NO":999,"REV_AT_EPOCH":172,"BSTAR":0.00031818841,"MEAN_MOTION_DOT":0.00011597,"MEAN_MOTION_DDOT":0},{"OBJECT_NAME":"KUIPER-00639","OBJECT_ID":"2026-151Z","EPOCH":"2026-07-13T00:00:02.000160","CLASSIFICATION_TYPE":"U","MEAN_MOTION":15.35889688,"ECCENTRICITY":0.00098612,"INCLINATION":51.8687,"RA_OF_ASC_NODE":191.089,"ARG_OF_PERICENTER":154.1658,"MEAN_ANOMALY":292.7466,"EPHEMERIS_TYPE":0,"NORAD_CAT_ID":69786,"ELEMENT_SET_NO":999,"REV_AT_EPOCH":130,"BSTAR":0.00091123107,"MEAN_MOTION_DOT":0.00032116,"MEAN_MOTION_DDOT":0},{"OBJECT_NAME":"KUIPER-00641","OBJECT_ID":"2026-151AA","EPOCH":"2026-07-13T00:00:02.000160","CLASSIFICATION_TYPE":"U","MEAN_MOTION":15.35110191,"ECCENTRICITY":0.00107599,"INCLINATION":51.8677,"RA_OF_ASC_NODE":191.1293,"ARG_OF_PERICENTER":156.3,"MEAN_ANOMALY":270.4252,"EPHEMERIS_TYPE":0,"NORAD_CAT_ID":69787,"ELEMENT_SET_NO":999,"REV_AT_EPOCH":231,"BSTAR":0.00068582458,"MEAN_MOTION_DOT":0.00023455,"MEAN_MOTION_DDOT":0},{"OBJECT_NAME":"KUIPER-00644","OBJECT_ID":"2026-151AB","EPOCH":"2026-07-13T00:00:02.000160","CLASSIFICATION_TYPE":"U","MEAN_MOTION":15.36527451,"ECCENTRICITY":0.00086587,"INCLINATION":51.8737,"RA_OF_ASC_NODE":191.0651,"ARG_OF_PERICENTER":150.2064,"MEAN_ANOMALY":308.9955,"EPHEMERIS_TYPE":0,"NORAD_CAT_ID":69788,"ELEMENT_SET_NO":999,"REV_AT_EPOCH":261,"BSTAR":0.00068691882,"MEAN_MOTION_DOT":0.00024586,"MEAN_MOTION_DDOT":0},{"OBJECT_NAME":"KUIPER-00646","OBJECT_ID":"2026-151AC","EPOCH":"2026-07-13T00:00:02.000160","CLASSIFICATION_TYPE":"U","MEAN_MOTION":15.35941879,"ECCENTRICITY":0.00097572,"INCLINATION":51.8701,"RA_OF_ASC_NODE":191.0859,"ARG_OF_PERICENTER":156.2352,"MEAN_ANOMALY":292.4103,"EPHEMERIS_TYPE":0,"NORAD_CAT_ID":69789,"ELEMENT_SET_NO":999,"REV_AT_EPOCH":150,"BSTAR":0.00086467206,"MEAN_MOTION_DOT":0.00030499,"MEAN_MOTION_DDOT":0},{"OBJECT_NAME":"KUIPER-00647","OBJECT_ID":"2026-151AD","EPOCH":"2026-07-13T00:00:02.000160","CLASSIFICATION_TYPE":"U","MEAN_MOTION":15.35619369,"ECCENTRICITY":0.00107674,"INCLINATION":51.8664,"RA_OF_ASC_NODE":191.1174,"ARG_OF_PERICENTER":156.4497,"MEAN_ANOMALY":275.8707,"EPHEMERIS_TYPE":0,"NORAD_CAT_ID":69790,"ELEMENT_SET_NO":999,"REV_AT_EPOCH":245,"BSTAR":0.00071369798,"MEAN_MOTION_DOT":0.00024834,"MEAN_MOTION_DDOT":0},{"OBJECT_NAME":"KUIPER-00662","OBJECT_ID":"2026-151AE","EPOCH":"2026-07-13T05:47:56.658336","CLASSIFICATION_TYPE":"U","MEAN_MOTION":15.36583181,"ECCENTRICITY":0.00085316,"INCLINATION":51.8724,"RA_OF_ASC_NODE":189.8913,"ARG_OF_PERICENTER":147.2284,"MEAN_ANOMALY":212.9233,"EPHEMERIS_TYPE":0,"NORAD_CAT_ID":69791,"ELEMENT_SET_NO":999,"REV_AT_EPOCH":171,"BSTAR":-0.00013764754,"MEAN_MOTION_DOT":-0.00005387,"MEAN_MOTION_DDOT":0}]}
